ORBCOMM FM33            
1 25983U 99065D   25039.03107290  .00002109  00000+0  71628-3 0  9995
2 25983  45.0270 252.7874 0008961 130.2734 229.8899 14.39414689317520
ORBCOMM FM36            
1 25984U 99065E   25039.10345359  .00002465  00000+0  86217-3 0  9999
2 25984  45.0404 342.3824 0004556 359.5648   0.5196 14.37526687316430
ORBCOMM FM35            
1 25985U 99065F   25039.13282259  .00001902  00000+0  68873-3 0  9995
2 25985  45.0408 346.2884 0002381  85.8691 274.2430 14.36593099316414
ORBCOMM FM34            
1 25986U 99065G   25038.54587252  .00002172  00000+0  77916-3 0  9999
2 25986  45.0401 349.5747 0004116  28.6752 331.4322 14.36635557316257
ORBCOMM FM38            
1 33060U 08031A   25038.87032165  .00003520  00000+0  48406-3 0  9998
2 33060  48.4383 211.1355 0006196 205.4265 154.6346 14.80336858895577
ORBCOMM FM41            
1 33061U 08031B   25039.00041377  .00003544  00000+0  49147-3 0  9999
2 33061  48.4418 217.8681 0005279 192.7724 308.8042 14.79962202895539
ORBCOMM FM29            
1 33062U 08031C   25038.91835403  .00003550  00000+0  49167-3 0  9999
2 33062  48.4372 226.2036 0007020 189.6330 281.3292 14.80009528894997
ORBCOMM FM39            
1 33063U 08031D   25039.00889253  .00002894  00000+0  41860-3 0  9995
2 33063  48.4390 248.6791 0007623 163.9022 196.2136 14.78688305895092
